NORAD_CAT_ID,OBJECT_NAME,OBJECT_TYPE,EPOCH,MEAN_MOTION,ECCENTRICITY,INCLINATION,RA_OF_ASC_NODE,ARG_OF_PERICENTER,MEAN_ANOMALY,BSTAR,MEAN_MOTION_DOT,MEAN_MOTION_DDOT,TLE_LINE0,TLE_LINE1,TLE_LINE2,SEMIMAJOR_AXIS,PERIOD,APOGEE,PERIGEE,DECAYED
49174.0,STARLINK-3047,PAYLOAD,2023-07-08 18:34:41,14.98590642,0.0003621,69.9974,212.4017,252.9691,107.1071,0.00023409,2.72e-05,0.0,0 STARLINK-3047,1 49174U 21082AW  23189.77409649  .00002720  00000-0  23409-3 0  9999,2 49174  69.9974 212.4017 0003621 252.9691 107.1071 14.98590642101618,6949.387,96.09,573.768,568.736,0.0
49174.0,STARLINK-3047,PAYLOAD,2023-07-10 02:37:02,14.98595636,0.0003621,69.9974,209.0342,251.8657,108.2108,0.00019792,2.285e-05,0.0,0 STARLINK-3047,1 49174U 21082AW  23191.10906190  .00002285  00000-0  19792-3 0  9998,2 49174  69.9974 209.0342 0003621 251.8657 108.2108 14.98595636101814,6949.372,96.09,573.753,568.72,0.0
49174.0,STARLINK-3047,PAYLOAD,2023-07-11 02:38:48,14.98599032,0.0003591,69.9975,206.5086,251.6325,108.4444,0.00016905,1.938e-05,0.0,0 STARLINK-3047,1 49174U 21082AW  23192.11028333  .00001938  00000-0  16905-3 0  9991,2 49174  69.9975 206.5086 0003591 251.6325 108.4444 14.98599032101963,6949.361,96.09,573.722,568.731,0.0
49174.0,STARLINK-3047,PAYLOAD,2023-07-12 07:28:54,14.98605503,0.0003554,69.9974,203.4776,251.1313,108.9461,0.00021002,2.431e-05,0.0,0 STARLINK-3047,1 49174U 21082AW  23193.31174450  .00002431  00000-0  21002-3 0  9999,2 49174  69.9974 203.4776 0003554 251.1313 108.9461 14.98605503102141,6949.341,96.089,573.676,568.736,0.0
49174.0,STARLINK-3047,PAYLOAD,2023-07-13 17:07:21,14.98612684,0.0003514,69.9974,199.9416,250.9224,109.1555,0.00021597,2.504e-05,0.0,0 STARLINK-3047,1 49174U 21082AW  23194.71344315  .00002504  00000-0  21597-3 0  9993,2 49174  69.9974 199.9416 0003514 250.9224 109.1555 14.98612684102353,6949.319,96.089,573.626,568.742,0.0
49174.0,STARLINK-3047,PAYLOAD,2023-07-14 17:09:05,14.98618692,0.000352,69.9971,197.416,249.808,110.2701,0.00023775,2.766e-05,0.0,0 STARLINK-3047,1 49174U 21082AW  23195.71465194  .00002766  00000-0  23775-3 0  9993,2 49174  69.9971 197.4160 0003520 249.8080 110.2701 14.98618692102501,6949.3,96.088,573.611,568.719,0.0
49174.0,STARLINK-3047,PAYLOAD,2023-07-15 17:10:49,14.98624505,0.0003506,69.9969,194.8901,249.9829,110.0953,0.00023867,2.777e-05,0.0,0 STARLINK-3047,1 49174U 21082AW  23196.71585644  .00002777  00000-0  23867-3 0  9991,2 49174  69.9969 194.8901 0003506 249.9829 110.0953 14.98624505102651,6949.282,96.088,573.584,568.711,0.0
49174.0,STARLINK-3047,PAYLOAD,2023-07-16 09:12:00,14.9861007,0.0003326,69.9969,193.2061,248.4575,111.623,0.00097701,0.00011669,0.0,0 STARLINK-3047,1 49174U 21082AW  23197.38333680  .00011669  00000-0  97701-3 0  9994,2 49174  69.9969 193.2061 0003326 248.4575 111.6230 14.98610070102751,6949.327,96.089,573.503,568.881,0.0
49174.0,STARLINK-3047,PAYLOAD,2023-07-16 17:12:33,14.98627689,0.000345,69.9969,192.3641,249.1343,110.9447,0.00030911,3.625e-05,0.0,0 STARLINK-3047,1 49174U 21082AW  23197.71705911  .00003625  00000-0  30911-3 0  9994,2 49174  69.9969 192.3641 0003450 249.1343 110.9447 14.98627689102806,6949.272,96.088,573.535,568.74,0.0
49174.0,STARLINK-3047,PAYLOAD,2023-07-17 17:14:16,14.98641701,0.0003473,69.9971,189.8386,248.8826,111.1962,1.8315e-05,1.27e-06,0.0,0 STARLINK-3047,1 49174U 21082AW  23198.71825084  .00000127  00000-0  18315-4 0  9998,2 49174  69.9971 189.8386 0003473 248.8826 111.1962 14.98641701102955,6949.229,96.087,573.508,568.681,0.0
49174.0,STARLINK-3047,PAYLOAD,2023-07-19 02:52:41,14.98645913,0.000339,69.9972,186.3023,248.4747,111.6051,0.00026511,3.097e-05,0.0,0 STARLINK-3047,1 49174U 21082AW  23200.11992245  .00003097  00000-0  26511-3 0  9995,2 49174  69.9972 186.3023 0003390 248.4747 111.6051 14.98645913103169,6949.216,96.087,573.437,568.725,0.0
49174.0,STARLINK-3047,PAYLOAD,2023-07-20 09:18:51,14.98654477,0.0003304,69.9978,183.1031,248.0704,112.0104,0.00027417,3.207e-05,0.0,0 STARLINK-3047,1 49174U 21082AW  23201.38809101  .00003207  00000-0  27417-3 0  9992,2 49174  69.9978 183.1031 0003304 248.0704 112.0104 14.98654477103353,6949.19,96.086,573.351,568.759,0.0
49174.0,STARLINK-3047,PAYLOAD,2023-07-24 07:49:28,14.98689859,0.0003226,69.9983,173.1679,246.3037,113.7783,0.00037266,4.398e-05,0.0,0 STARLINK-3047,1 49174U 21082AW  23205.32603009  .00004398  00000-0  37266-3 0  9994,2 49174  69.9983 173.1679 0003226 246.3037 113.7783 14.98689859103947,6949.08,96.084,573.187,568.704,0.0
49174.0,STARLINK-3047,PAYLOAD,2023-07-25 07:51:08,14.98700224,0.0003163,69.9983,170.6419,245.9722,114.1106,0.0003828,4.521e-05,0.0,0 STARLINK-3047,1 49174U 21082AW  23206.32718506  .00004521  00000-0  38280-3 0  9999,2 49174  69.9983 170.6419 0003163 245.9722 114.1106 14.98700224104098,6949.048,96.083,573.111,568.715,0.0
49174.0,STARLINK-3047,PAYLOAD,2023-07-26 07:52:47,14.98712824,0.000317,69.9979,168.1159,244.8854,115.1976,0.00044584,5.283e-05,0.0,0 STARLINK-3047,1 49174U 21082AW  23207.32833240  .00005283  00000-0  44584-3 0  9993,2 49174  69.9979 168.1159 0003170 244.8854 115.1976 14.98712824104240,6949.009,96.082,573.077,568.671,0.0
49174.0,STARLINK-3047,PAYLOAD,2023-07-27 14:18:52,14.9872981,0.0003101,69.998,164.9166,244.5811,115.5027,0.00050059,5.947e-05,0.0,0 STARLINK-3047,1 49174U 21082AW  23208.59643975  .00005947  00000-0  50059-3 0  9998,2 49174  69.9980 164.9166 0003101 244.5811 115.5027 14.98729810104433,6948.957,96.081,572.977,568.667,0.0
49174.0,STARLINK-3047,PAYLOAD,2023-07-27 20:43:18,14.98733009,0.000309,69.998,164.243,244.3436,115.7404,0.00049281,5.853e-05,0.0,0 STARLINK-3047,1 49174U 21082AW  23208.86340816  .00005853  00000-0  49281-3 0  9997,2 49174  69.9980 164.2430 0003090 244.3436 115.7404 14.98733009104478,6948.947,96.081,572.959,568.665,0.0
49174.0,STARLINK-3047,PAYLOAD,2023-07-28 04:43:50,14.98737298,0.0003065,69.9981,163.401,244.2558,115.8285,0.00047878,5.685e-05,0.0,0 STARLINK-3047,1 49174U 21082AW  23209.19711738  .00005685  00000-0  47878-3 0  9992,2 49174  69.9981 163.4010 0003065 244.2558 115.8285 14.98737298104528,6948.934,96.081,572.928,568.669,0.0
49174.0,STARLINK-3047,PAYLOAD,2023-07-28 14:20:29,14.9874158,0.000305,69.9982,162.3907,244.1454,115.9391,0.00045047,5.343e-05,0.0,0 STARLINK-3047,1 49174U 21082AW  23209.59756770  .00005343  00000-0  45047-3 0  9998,2 49174  69.9982 162.3907 0003050 244.1454 115.9391 14.98741580104584,6948.92,96.081,572.905,568.666,0.0
49174.0,STARLINK-3047,PAYLOAD,2023-07-29 15:58:13,14.98756124,0.0003013,69.9982,159.6963,243.3375,116.7476,0.00051677,6.147e-05,0.0,0 STARLINK-3047,1 49174U 21082AW  23210.66542842  .00006147  00000-0  51677-3 0  9990,2 49174  69.9982 159.6963 0003013 243.3375 116.7476 14.98756124104748,6948.875,96.08,572.834,568.647,0.0
49174.0,STARLINK-3047,PAYLOAD,2023-07-31 01:36:26,14.98778149,0.0003005,69.9986,156.1598,242.5063,117.5791,0.00061836,7.379e-05,0.0,0 STARLINK-3047,1 49174U 21082AW  23212.06697842  .00007379  00000-0  61836-3 0  9993,2 49174  69.9986 156.1598 0003005 242.5063 117.5791 14.98778149104957,6948.807,96.078,572.76,568.584,0.0
49174.0,STARLINK-3047,PAYLOAD,2023-08-01 03:14:07,14.9879617,0.0002935,69.999,153.4656,242.1602,117.926,0.00067238,8.036e-05,0.0,0 STARLINK-3047,1 49174U 21082AW  23213.13481215  .00008036  00000-0  67238-3 0  9990,2 49174  69.9990 153.4656 0002935 242.1602 117.9260 14.98796170105111,6948.752,96.077,572.656,568.577,0.0
49174.0,STARLINK-3047,PAYLOAD,2023-08-02 06:27:53,14.98813901,0.0002868,69.9992,150.6027,242.0502,118.0367,0.00064947,7.762e-05,0.0,0 STARLINK-3047,1 49174U 21082AW  23214.26937215  .00007762  00000-0  64947-3 0  9990,2 49174  69.9992 150.6027 0002868 242.0502 118.0367 14.98813901105287,6948.697,96.076,572.555,568.569,0.0
49174.0,STARLINK-3047,PAYLOAD,2023-08-04 01:42:39,14.98849279,0.00028,69.9994,146.056,239.6833,120.4049,0.00078623,9.427e-05,0.0,0 STARLINK-3047,1 49174U 21082AW  23216.07128768  .00009427  00000-0  78623-3 0  9992,2 49174  69.9994 146.0560 0002800 239.6833 120.4049 14.98849279105556,6948.588,96.074,572.398,568.507,0.0
49174.0,STARLINK-3047,PAYLOAD,2023-08-05 03:20:15,14.98870829,0.0002774,69.9994,143.3612,237.7034,122.3857,0.0008749,0.00010509,0.0,0 STARLINK-3047,1 49174U 21082AW  23217.13907050  .00010509  00000-0  87490-3 0  9994,2 49174  69.9994 143.3612 0002774 237.7034 122.3857 14.98870829105717,6948.521,96.072,572.313,568.458,0.0
49174.0,STARLINK-3047,PAYLOAD,2023-08-06 04:57:50,14.98894217,0.0002767,69.999,140.6661,239.2908,120.7979,0.00080115,9.62e-05,0.0,0 STARLINK-3047,1 49174U 21082AW  23218.20683573  .00009620  00000-0  80115-3 0  9993,2 49174  69.9990 140.6661 0002767 239.2908 120.7979 14.98894217105877,6948.449,96.071,572.236,568.391,0.0
49174.0,STARLINK-3047,PAYLOAD,2023-08-07 04:59:18,14.98912142,0.00027,69.9988,138.1398,238.5208,121.5688,0.00066637,7.987e-05,0.0,0 STARLINK-3047,1 49174U 21082AW  23219.20785189  .00007987  00000-0  66637-3 0  9997,2 49174  69.9988 138.1398 0002700 238.5208 121.5688 14.98912142106027,6948.393,96.07,572.134,568.382,0.0
49174.0,STARLINK-3047,PAYLOAD,2023-08-08 05:00:45,14.98934014,0.0002646,69.9985,135.6134,237.7755,122.3148,0.00091868,0.00011058,0.0,0 STARLINK-3047,1 49174U 21082AW  23220.20885618  .00011058  00000-0  91868-3 0  9995,2 49174  69.9985 135.6134 0002646 237.7755 122.3148 14.98934014106179,6948.326,96.068,572.029,568.352,0.0
49174.0,STARLINK-3047,PAYLOAD,2023-08-09 22:39:12,14.98964561,0.0002581,69.9987,131.2341,235.7979,124.2936,0.00079044,9.507e-05,0.0,0 STARLINK-3047,1 49174U 21082AW  23221.94390034  .00009507  00000-0  79044-3 0  9998,2 49174  69.9987 131.2341 0002581 235.7979 124.2936 14.98964561106432,6948.231,96.066,571.89,568.303,0.0
49174.0,STARLINK-3047,PAYLOAD,2023-08-11 00:16:42,14.98982179,0.0002616,69.9993,128.5396,235.6442,124.447,0.00071731,8.622e-05,0.0,0 STARLINK-3047,1 49174U 21082AW  23223.01160192  .00008622  00000-0  71731-3 0  9990,2 49174  69.9993 128.5396 0002616 235.6442 124.4470 14.98982179106598,6948.177,96.065,571.859,568.224,0.0
